start=new Date('2023-02-16T00:00:00.000Z').valueOf();
sats=[{"BSTAR":"0.00024509000000","NORAD_CAT_ID":"53488","EPHEMERIS_TYPE":"0","MEAN_ANOMALY":"247.3412","TIME_SYSTEM":"UTC","REV_AT_EPOCH":"2827","OBJECT_TYPE":"PAYLOAD","FILE":"3795153","MEAN_MOTION_DOT":"0.00003091","ECCENTRICITY":"0.00011520","GP_ID":"225555490","SEMIMAJOR_AXIS":"6941.108","ARG_OF_PERICENTER":"112.7934","TLE_LINE1":"1 53488U 22099Z   23046.87112446  .00003091  00000-0  24509-3 0  9994","SITE":"AFWTR","CENTER_NAME":"EARTH","MEAN_MOTION":"15.01272647","REF_FRAME":"TEME","RA_OF_ASC_NODE":"169.6968","OBJECT_NAME":"STARLINK-4421","TLE_LINE2":"2 53488  97.6536 169.6968 0001152 112.7934 247.3412 15.01272647 28274","CLASSIFICATION_TYPE":"U","PERIOD":"95.919","EPOCH":"2023-02-15T20:54:25.153344","MEAN_ELEMENT_THEORY":"SGP4","COUNTRY_CODE":"US","DECAY_DATE":null,"RCS_SIZE":"LARGE","APOAPSIS":"563.772","PERIAPSIS":"562.173","INCLINATION":"97.6536","ELEMENT_SET_NO":"999","LAUNCH_DATE":"2022-08-12","OBJECT_ID":"2022-099Z","MEAN_MOTION_DDOT":"0.0000000000000"},{"BSTAR":"0.00224190000000","MEAN_ANOMALY":"209.2442","NORAD_CAT_ID":"53489","EPHEMERIS_TYPE":"0","TIME_SYSTEM":"UTC","REV_AT_EPOCH":"2852","FILE":"3794937","OBJECT_TYPE":"PAYLOAD","MEAN_MOTION_DOT":"0.00028886","GP_ID":"225526254","ECCENTRICITY":"0.00004310","ARG_OF_PERICENTER":"150.8806","SEMIMAJOR_AXIS":"6941.016","TLE_LINE1":"1 53489U 22099AA  23046.93036761  .00028886  00000-0  22419-2 0  9993","SITE":"AFWTR","CENTER_NAME":"EARTH","MEAN_MOTION":"15.01302377","REF_FRAME":"TEME","RA_OF_ASC_NODE":"169.7513","CLASSIFICATION_TYPE":"U","TLE_LINE2":"2 53489  97.6512 169.7513 0000431 150.8806 209.2442 15.01302377 28528","OBJECT_NAME":"STARLINK-4392","EPOCH":"2023-02-15T22:19:43.761504","PERIOD":"95.917","MEAN_ELEMENT_THEORY":"SGP4","COUNTRY_CODE":"US","DECAY_DATE":null,"APOAPSIS":"563.180","RCS_SIZE":"LARGE","PERIAPSIS":"562.582","INCLINATION":"97.6512","ELEMENT_SET_NO":"999","LAUNCH_DATE":"2022-08-12","OBJECT_ID":"2022-099AA","MEAN_MOTION_DDOT":"0.0000000000000"},{"MEAN_MOTION":"15.01306386","RA_OF_ASC_NODE":"169.7572","REF_FRAME":"TEME","TLE_LINE1":"1 53490U 22099AB  23046.93406636  .00025222  00000-0  19589-2 0  9992","ARG_OF_PERICENTER":"207.4671","SEMIMAJOR_AXIS":"6941.004","CENTER_NAME":"EARTH","SITE":"AFWTR","ECCENTRICITY":"0.00001920","GP_ID":"225525889","MEAN_MOTION_DOT":"0.00025222","NORAD_CAT_ID":"53490","MEAN_ANOMALY":"152.6543","EPHEMERIS_TYPE":"0","TIME_SYSTEM":"UTC","BSTAR":"0.00195890000000","FILE":"3794940","OBJECT_TYPE":"PAYLOAD","REV_AT_EPOCH":"2852","LAUNCH_DATE":"2022-08-12","ELEMENT_SET_NO":"999","MEAN_MOTION_DDOT":"0.0000000000000","OBJECT_ID":"2022-099AB","APOAPSIS":"563.002","RCS_SIZE":"LARGE","INCLINATION":"97.6528","PERIAPSIS":"562.736","MEAN_ELEMENT_THEORY":"SGP4","DECAY_DATE":null,"COUNTRY_CODE":"US","TLE_LINE2":"2 53490  97.6528 169.7572 0000192 207.4671 152.6543 15.01306386 28522","CLASSIFICATION_TYPE":"U","OBJECT_NAME":"STARLINK-4387","EPOCH":"2023-02-15T22:25:03.333504","PERIOD":"95.916"},{"MEAN_MOTION_DOT":"0.00025165","ECCENTRICITY":"0.00004330","GP_ID":"225554743","BSTAR":"0.00195470000000","NORAD_CAT_ID":"53491","TIME_SYSTEM":"UTC","EPHEMERIS_TYPE":"0","MEAN_ANOMALY":"200.8684","REV_AT_EPOCH":"2828","OBJECT_TYPE":"PAYLOAD","FILE":"3795153","MEAN_MOTION":"15.01302874","REF_FRAME":"TEME","RA_OF_ASC_NODE":"169.7450","SEMIMAJOR_AXIS":"6941.015","ARG_OF_PERICENTER":"159.2558","TLE_LINE1":"1 53491U 22099AC  23046.92666245  .00025165  00000-0  19547-2 0  9996","SITE":"AFWTR","CENTER_NAME":"EARTH","MEAN_ELEMENT_THEORY":"SGP4","COUNTRY_CODE":"US","DECAY_DATE":null,"OBJECT_NAME":"STARLINK-4450","CLASSIFICATION_TYPE":"U","TLE_LINE2":"2 53491  97.6544 169.7450 0000433 159.2558 200.8684 15.01302874 28285","PERIOD":"95.917","EPOCH":"2023-02-15T22:14:23.635680","ELEMENT_SET_NO":"999","LAUNCH_DATE":"2022-08-12","OBJECT_ID":"2022-099AC","MEAN_MOTION_DDOT":"0.0000000000000","APOAPSIS":"563.180","RCS_SIZE":"LARGE","PERIAPSIS":"562.579","INCLINATION":"97.6544"},{"MEAN_MOTION_DDOT":"0.0000000000000","OBJECT_ID":"2022-099AD","LAUNCH_DATE":"2022-08-12","ELEMENT_SET_NO":"999","INCLINATION":"97.6527","PERIAPSIS":"562.480","RCS_SIZE":"LARGE","APOAPSIS":"563.432","DECAY_DATE":null,"COUNTRY_CODE":"US","MEAN_ELEMENT_THEORY":"SGP4","PERIOD":"95.918","EPOCH":"2023-02-15T20:44:06.299520","OBJECT_NAME":"STARLINK-4451","TLE_LINE2":"2 53492  97.6527 169.6849 0000686 116.2190 243.9105 15.01278168 28276","CLASSIFICATION_TYPE":"U","RA_OF_ASC_NODE":"169.6849","REF_FRAME":"TEME","MEAN_MOTION":"15.01278168","CENTER_NAME":"EARTH","SITE":"AFWTR","TLE_LINE1":"1 53492U 22099AD  23046.86396180  .00007663  00000-0  60028-3 0  9992","SEMIMAJOR_AXIS":"6941.091","ARG_OF_PERICENTER":"116.2190","GP_ID":"225554997","ECCENTRICITY":"0.00006860","MEAN_MOTION_DOT":"0.00007663","OBJECT_TYPE":"PAYLOAD","FILE":"3795153","REV_AT_EPOCH":"2827","NORAD_CAT_ID":"53492","EPHEMERIS_TYPE":"0","MEAN_ANOMALY":"243.9105","TIME_SYSTEM":"UTC","BSTAR":"0.00060028000000"},{"CENTER_NAME":"EARTH","SITE":"AFWTR","TLE_LINE1":"1 53493U 22099AE  23046.92321569  .00009531  00000-0  74520-3 0  9997","ARG_OF_PERICENTER":"130.5085","SEMIMAJOR_AXIS":"6941.081","RA_OF_ASC_NODE":"169.7379","REF_FRAME":"TEME","MEAN_MOTION":"15.01281511","FILE":"3795153","OBJECT_TYPE":"PAYLOAD","REV_AT_EPOCH":"2828","NORAD_CAT_ID":"53493","MEAN_ANOMALY":"229.6234","EPHEMERIS_TYPE":"0","TIME_SYSTEM":"UTC","BSTAR":"0.00074520000000","ECCENTRICITY":"0.00010830","GP_ID":"225555239","MEAN_MOTION_DOT":"0.00009531","INCLINATION":"97.6534","PERIAPSIS":"562.194","APOAPSIS":"563.697","RCS_SIZE":"LARGE","MEAN_MOTION_DDOT":"0.0000000000000","OBJECT_ID":"2022-099AE","LAUNCH_DATE":"2022-08-12","ELEMENT_SET_NO":"999","EPOCH":"2023-02-15T22:09:25.835616","PERIOD":"95.918","CLASSIFICATION_TYPE":"U","TLE_LINE2":"2 53493  97.6534 169.7379 0001083 130.5085 229.6234 15.01281511 28289","OBJECT_NAME":"STARLINK-4361","DECAY_DATE":null,"COUNTRY_CODE":"US","MEAN_ELEMENT_THEORY":"SGP4"},{"OBJECT_ID":"2022-099AF","MEAN_MOTION_DDOT":"0.0000000000000","ELEMENT_SET_NO":"999","LAUNCH_DATE":"2022-08-12","PERIAPSIS":"562.155","INCLINATION":"97.6532","RCS_SIZE":"LARGE","APOAPSIS":"563.717","COUNTRY_CODE":"US","DECAY_DATE":null,"MEAN_ELEMENT_THEORY":"SGP4","EPOCH":"2023-02-15T22:17:03.979392","PERIOD":"95.918","TLE_LINE2":"2 53494  97.6532 169.7433 0001125 126.7058 233.4270 15.01284547 28288","CLASSIFICATION_TYPE":"U","OBJECT_NAME":"STARLINK-4340","REF_FRAME":"TEME","RA_OF_ASC_NODE":"169.7433","MEAN_MOTION":"15.01284547","SITE":"AFWTR","CENTER_NAME":"EARTH","ARG_OF_PERICENTER":"126.7058","SEMIMAJOR_AXIS":"6941.071","TLE_LINE1":"1 53494U 22099AF  23046.92851828  .00010095  00000-0  78891-3 0  9996","MEAN_MOTION_DOT":"0.00010095","GP_ID":"225554002","ECCENTRICITY":"0.00011250","REV_AT_EPOCH":"2828","FILE":"3795153","OBJECT_TYPE":"PAYLOAD","BSTAR":"0.00078891000000","NORAD_CAT_ID":"53494","EPHEMERIS_TYPE":"0","MEAN_ANOMALY":"233.4270","TIME_SYSTEM":"UTC"},{"LAUNCH_DATE":"2022-08-12","ELEMENT_SET_NO":"999","MEAN_MOTION_DDOT":"0.0000000000000","OBJECT_ID":"2022-099AG","APOAPSIS":"563.682","RCS_SIZE":"LARGE","INCLINATION":"97.6524","PERIAPSIS":"562.210","MEAN_ELEMENT_THEORY":"SGP4","DECAY_DATE":null,"COUNTRY_CODE":"US","OBJECT_NAME":"STARLINK-4429","CLASSIFICATION_TYPE":"U","TLE_LINE2":"2 53495  97.6524 169.7357 0001060 110.3498 249.7840 15.01281427 28287","PERIOD":"95.918","EPOCH":"2023-02-15T22:06:24.306624","MEAN_MOTION":"15.01281427","RA_OF_ASC_NODE":"169.7357","REF_FRAME":"TEME","TLE_LINE1":"1 53495U 22099AG  23046.92111466  .00018005  00000-0  14020-2 0  9996","SEMIMAJOR_AXIS":"6941.081","ARG_OF_PERICENTER":"110.3498","CENTER_NAME":"EARTH","SITE":"AFWTR","GP_ID":"225554250","ECCENTRICITY":"0.00010600","MEAN_MOTION_DOT":"0.00018005","NORAD_CAT_ID":"53495","MEAN_ANOMALY":"249.7840","EPHEMERIS_TYPE":"0","TIME_SYSTEM":"UTC","BSTAR":"0.00140200000000","OBJECT_TYPE":"PAYLOAD","FILE":"3795153","REV_AT_EPOCH":"2828"},{"OBJECT_NAME":"STARLINK-4465","CLASSIFICATION_TYPE":"U","TLE_LINE2":"2 53496  97.6512 169.7432 0002090 102.2887 257.8572 15.01286026 28287","PERIOD":"95.918","EPOCH":"2023-02-15T22:11:43.544256","MEAN_ELEMENT_THEORY":"SGP4","DECAY_DATE":null,"COUNTRY_CODE":"US","RCS_SIZE":"LARGE","APOAPSIS":"564.382","INCLINATION":"97.6512","PERIAPSIS":"561.481","LAUNCH_DATE":"2022-08-12","ELEMENT_SET_NO":"999","MEAN_MOTION_DDOT":"0.0000000000000","OBJECT_ID":"2022-099AH","EPHEMERIS_TYPE":"0","NORAD_CAT_ID":"53496","MEAN_ANOMALY":"257.8572","TIME_SYSTEM":"UTC","BSTAR":"0.00081818000000","OBJECT_TYPE":"PAYLOAD","FILE":"3795153","REV_AT_EPOCH":"2828","ECCENTRICITY":"0.00020900","GP_ID":"225555491","MEAN_MOTION_DOT":"0.00010473","TLE_LINE1":"1 53496U 22099AH  23046.92480954  .00010473  00000-0  81818-3 0  9999","SEMIMAJOR_AXIS":"6941.067","ARG_OF_PERICENTER":"102.2887","CENTER_NAME":"EARTH","SITE":"AFWTR","MEAN_MOTION":"15.01286026","RA_OF_ASC_NODE":"169.7432","REF_FRAME":"TEME"},{"COUNTRY_CODE":"US","DECAY_DATE":null,"MEAN_ELEMENT_THEORY":"SGP4","EPOCH":"2023-02-15T22:01:03.659808","PERIOD":"95.917","TLE_LINE2":"2 53497  97.6516 169.7340 0001619 247.0054 113.0999 15.01291974 28284","CLASSIFICATION_TYPE":"U","OBJECT_NAME":"STARLINK-4453","OBJECT_ID":"2022-099AJ","MEAN_MOTION_DDOT":"0.0000000000000","ELEMENT_SET_NO":"999","LAUNCH_DATE":"2022-08-12","PERIAPSIS":"561.790","INCLINATION":"97.6516","RCS_SIZE":"MEDIUM","APOAPSIS":"564.037","MEAN_MOTION_DOT":"0.00016542","GP_ID":"225555733","ECCENTRICITY":"0.00016190","REV_AT_EPOCH":"2828","FILE":"3795153","OBJECT_TYPE":"PAYLOAD","BSTAR":"0.00128840000000","NORAD_CAT_ID":"53497","MEAN_ANOMALY":"113.0999","EPHEMERIS_TYPE":"0","TIME_SYSTEM":"UTC","REF_FRAME":"TEME","RA_OF_ASC_NODE":"169.7340","MEAN_MOTION":"15.01291974","SITE":"AFWTR","CENTER_NAME":"EARTH","ARG_OF_PERICENTER":"247.0054","SEMIMAJOR_AXIS":"6941.048","TLE_LINE1":"1 53497U 22099AJ  23046.91740347  .00016542  00000-0  12884-2 0  9993"}];
